SPAWAR-CAL-O            
1 43766U 18099J   26068.73975788  .00021069  00000+0  69663-3 0  9999
2 43766  97.4452 132.0993 0007239 285.0670  74.9770 15.31356755398280
STARLINK-35454          
1 66236U 25245C   26068.88367264  .00025543  00000+0  87154-3 0  9993
2 66236  53.1571 283.1826 0001160  89.5860 270.5273 15.30201576 21123
